{
  "type": "FeatureCollection",
  "features": [
    {
      "type": "Feature",
      "geometry": { "type": "Point", "coordinates": [-0.79304190, 48.07240630] },
      "properties": { "index": 0, "node_id": 482, "name": "Point 0" }
    },
    {
      "type": "Feature",
      "geometry": { "type": "Point", "coordinates": [-0.73478660, 48.04945430] },
      "properties": { "index": 1, "node_id": 2504, "name": "Point 1" }
    },
    {
      "type": "Feature",
      "geometry": { "type": "Point", "coordinates": [-0.78811830, 48.05941840] },
      "properties": { "index": 2, "node_id": 733, "name": "Point 2" }
    },
    {
      "type": "Feature",
      "geometry": { "type": "Point", "coordinates": [-0.78878990, 48.08359200] },
      "properties": { "index": 3, "node_id": 826, "name": "Point 3" }
    },
    {
      "type": "Feature",
      "geometry": { "type": "Point", "coordinates": [-0.80042200, 48.05389520] },
      "properties": { "index": 4, "node_id": 172, "name": "Point 4" }
    },
    {
      "type": "Feature",
      "geometry": { "type": "Point", "coordinates": [-0.74368030, 48.04642350] },
      "properties": { "index": 5, "node_id": 2361, "name": "Point 5" }
    },
    {
      "type": "Feature",
      "geometry": { "type": "Point", "coordinates": [-0.73013660, 48.08259170] },
      "properties": { "index": 6, "node_id": 2605, "name": "Point 6" }
    },
    {
      "type": "Feature",
      "geometry": {
        "type": "LineString",
        "coordinates": [
          [-0.79304190, 48.07240630],
          [-0.79194040, 48.07231700],
          [-0.79111420, 48.07226670],
          [-0.79048680, 48.07224100],
          [-0.79051440, 48.07181310],
          [-0.79050980, 48.07110630],
          [-0.79017380, 48.07026210],
          [-0.79020640, 48.07025180],
          [-0.79021590, 48.07013910],
          [-0.79194180, 48.06986580],
          [-0.79197580, 48.06953400],
          [-0.79178960, 48.06934400],
          [-0.79172320, 48.06924520],
          [-0.79117470, 48.06866900],
          [-0.79067590, 48.06813780],
          [-0.79027800, 48.06771490],
          [-0.78971880, 48.06710610],
          [-0.78747590, 48.06473450],
          [-0.78755290, 48.06471980],
          [-0.78763170, 48.06470480],
          [-0.78753760, 48.06460060],
          [-0.78750020, 48.06455950],
          [-0.78489910, 48.06188360],
          [-0.78429230, 48.06133000],
          [-0.78430180, 48.06119260],
          [-0.78457430, 48.06098550],
          [-0.78592330, 48.06011280],
          [-0.78629970, 48.05987600],
          [-0.78735360, 48.05924710],
          [-0.78759350, 48.05923120],
          [-0.78811830, 48.05941840]
        ]
      },
      "properties": {
        "from_index": 0,
        "to_index": 2,
        "label": "0 -> 2",
        "distance": 2088.9612
      }
    },
    {
      "type": "Feature",
      "geometry": {
        "type": "LineString",
        "coordinates": [
          [-0.78811830, 48.05941840],
          [-0.78771460, 48.05911850],
          [-0.78771860, 48.05904790],
          [-0.79041700, 48.05715300],
          [-0.79188180, 48.05696590],
          [-0.79568730, 48.05667010],
          [-0.79580090, 48.05670690],
          [-0.79587560, 48.05662810],
          [-0.79689260, 48.05631000],
          [-0.79717560, 48.05622270],
          [-0.79934330, 48.05560970],
          [-0.79967830, 48.05546150],
          [-0.79989230, 48.05550300],
          [-0.80006410, 48.05536150],
          [-0.80002790, 48.05527530],
          [-0.80147090, 48.05474580],
          [-0.80188520, 48.05458790],
          [-0.80058210, 48.05393650],
          [-0.80042200, 48.05389520]
        ]
      },
      "properties": {
        "from_index": 2,
        "to_index": 4,
        "label": "2 -> 4",
        "distance": 1420.6660
      }
    },
    {
      "type": "Feature",
      "geometry": {
        "type": "LineString",
        "coordinates": [
          [-0.80042200, 48.05389520],
          [-0.80058210, 48.05393650],
          [-0.80188520, 48.05458790],
          [-0.80147090, 48.05474580],
          [-0.80002790, 48.05527530],
          [-0.80006410, 48.05536150],
          [-0.79989230, 48.05550300],
          [-0.79967830, 48.05546150],
          [-0.79934330, 48.05560970],
          [-0.79836720, 48.05753940],
          [-0.79793970, 48.05850170],
          [-0.79787030, 48.05864130],
          [-0.79737790, 48.05925040],
          [-0.79739160, 48.05929820],
          [-0.79737930, 48.05930550],
          [-0.79799680, 48.05990050],
          [-0.79799640, 48.05996830],
          [-0.79625140, 48.06083200],
          [-0.79556840, 48.06136450],
          [-0.79520930, 48.06172920],
          [-0.79521190, 48.06180740],
          [-0.79551480, 48.06203390],
          [-0.79597250, 48.06252700],
          [-0.79619400, 48.06294110],
          [-0.79627970, 48.06341240],
          [-0.79600030, 48.06405060],
          [-0.79589820, 48.06410800],
          [-0.79509340, 48.06443810],
          [-0.79482330, 48.06516040],
          [-0.79492410, 48.06524310],
          [-0.79481080, 48.06531020],
          [-0.79480400, 48.06556800],
          [-0.79480800, 48.06577530],
          [-0.79484260, 48.06823640],
          [-0.79516690, 48.06909570],
          [-0.79498260, 48.06932280],
          [-0.79414840, 48.06946850],
          [-0.79338270, 48.06960320],
          [-0.79277270, 48.06977420],
          [-0.79303430, 48.07005010],
          [-0.79305640, 48.07011750],
          [-0.79348240, 48.07074740],
          [-0.79372750, 48.07111090],
          [-0.79428770, 48.07197060],
          [-0.79461840, 48.07243640],
          [-0.79472240, 48.07275390],
          [-0.79477780, 48.07289620],
          [-0.79504070, 48.07312710],
          [-0.79557250, 48.07496070],
          [-0.79558130, 48.07537980],
          [-0.79558090, 48.07547490],
          [-0.79559720, 48.07684020],
          [-0.79548360, 48.07740800],
          [-0.79552170, 48.07774570],
          [-0.79559150, 48.07817980],
          [-0.79560480, 48.07973300],
          [-0.79553860, 48.08032120],
          [-0.79544670, 48.08033890],
          [-0.79536230, 48.08036900],
          [-0.79518620, 48.08052520],
          [-0.79530410, 48.08083960],
          [-0.79249040, 48.08332190],
          [-0.78885190, 48.08352020],
          [-0.78878990, 48.08359200]
        ]
      },
      "properties": {
        "from_index": 4,
        "to_index": 3,
        "label": "4 -> 3",
        "distance": 4275.4185
      }
    },
    {
      "type": "Feature",
      "geometry": {
        "type": "LineString",
        "coordinates": [
          [-0.78878990, 48.08359200],
          [-0.78850190, 48.08360080],
          [-0.78608490, 48.08462940],
          [-0.78545790, 48.08475720],
          [-0.78406300, 48.08523310],
          [-0.77942420, 48.08864400],
          [-0.77917470, 48.08863130],
          [-0.77896660, 48.08875640],
          [-0.77893890, 48.08883930],
          [-0.77859530, 48.08903750],
          [-0.77804550, 48.08921920],
          [-0.77609290, 48.08991070],
          [-0.77523100, 48.09023180],
          [-0.77498480, 48.09013070],
          [-0.77472850, 48.09019030],
          [-0.77465740, 48.09025690],
          [-0.76376300, 48.09127570],
          [-0.76364400, 48.09117620],
          [-0.76325470, 48.09107290],
          [-0.76315360, 48.09107240],
          [-0.76282410, 48.09117190],
          [-0.76268130, 48.09130630],
          [-0.74962170, 48.09149500],
          [-0.74947620, 48.09138720],
          [-0.74918510, 48.09130920],
          [-0.74863210, 48.09147890],
          [-0.74798490, 48.09141590],
          [-0.74680910, 48.09121600],
          [-0.73871030, 48.08760240],
          [-0.73859870, 48.08737810],
          [-0.73835370, 48.08730400],
          [-0.73816530, 48.08732130],
          [-0.73792890, 48.08752020],
          [-0.73495830, 48.08580800],
          [-0.73479040, 48.08572010],
          [-0.73013660, 48.08259170]
        ]
      },
      "properties": {
        "from_index": 3,
        "to_index": 6,
        "label": "3 -> 6",
        "distance": 5111.7056
      }
    },
    {
      "type": "Feature",
      "geometry": {
        "type": "LineString",
        "coordinates": [
          [-0.73013660, 48.08259170],
          [-0.73005720, 48.08248650],
          [-0.73051000, 48.07431060],
          [-0.73023540, 48.07304890],
          [-0.73010340, 48.07302080],
          [-0.73019560, 48.07228460],
          [-0.73044960, 48.07151140],
          [-0.73374130, 48.06350340],
          [-0.73371290, 48.06234620],
          [-0.73348240, 48.06210510],
          [-0.73361000, 48.06189930],
          [-0.73376570, 48.06183840],
          [-0.73384840, 48.06109950],
          [-0.73351730, 48.05108660],
          [-0.73430230, 48.04993660],
          [-0.73422930, 48.04967060],
          [-0.73448410, 48.04947230],
          [-0.73478660, 48.04945430]
        ]
      },
      "properties": {
        "from_index": 6,
        "to_index": 1,
        "label": "6 -> 1",
        "distance": 3871.0256
      }
    },
    {
      "type": "Feature",
      "geometry": {
        "type": "LineString",
        "coordinates": [
          [-0.73478660, 48.04945430],
          [-0.73549670, 48.04911030],
          [-0.74251560, 48.04671500],
          [-0.74368030, 48.04642350]
        ]
      },
      "properties": {
        "from_index": 1,
        "to_index": 5,
        "label": "1 -> 5",
        "distance": 755.2670
      }
    },
    {
      "type": "Feature",
      "geometry": {
        "type": "LineString",
        "coordinates": [
          [-0.74368030, 48.04642350],
          [-0.74386020, 48.04647100],
          [-0.74405240, 48.04645650],
          [-0.74470490, 48.04699610],
          [-0.74514300, 48.04789680],
          [-0.74556390, 48.04858330],
          [-0.74608640, 48.04937070],
          [-0.74651260, 48.04999890],
          [-0.74687900, 48.05050830],
          [-0.74695090, 48.05059520],
          [-0.74982460, 48.05441860],
          [-0.74988620, 48.05441140],
          [-0.75008830, 48.05449440],
          [-0.74997850, 48.05468930],
          [-0.75014010, 48.05491850],
          [-0.75094510, 48.05606040],
          [-0.75179230, 48.05728490],
          [-0.75195760, 48.05751330],
          [-0.75221190, 48.05786770],
          [-0.75296560, 48.05892360],
          [-0.75308630, 48.05909110],
          [-0.75324580, 48.05930860],
          [-0.75325080, 48.05931510],
          [-0.75379460, 48.06001940],
          [-0.75421220, 48.06045400],
          [-0.75459800, 48.06067530],
          [-0.75515350, 48.06095780],
          [-0.75523890, 48.06096490],
          [-0.75535740, 48.06105010],
          [-0.75536320, 48.06109880],
          [-0.75601260, 48.06144810],
          [-0.75664250, 48.06179640],
          [-0.75748070, 48.06222320],
          [-0.75817880, 48.06260140],
          [-0.75843790, 48.06272930],
          [-0.75850910, 48.06276910],
          [-0.75858430, 48.06280810],
          [-0.75934020, 48.06329400],
          [-0.76059940, 48.06398950],
          [-0.76065650, 48.06402050],
          [-0.76091780, 48.06416970],
          [-0.76120320, 48.06431270],
          [-0.76297060, 48.06526420],
          [-0.76384390, 48.06643690],
          [-0.76462720, 48.06743580],
          [-0.76495960, 48.06748280],
          [-0.76742440, 48.06776760],
          [-0.76839950, 48.06777940],
          [-0.76891420, 48.06833390],
          [-0.76946460, 48.06950710],
          [-0.77005910, 48.07096970],
          [-0.77116750, 48.07092150],
          [-0.77136810, 48.07081860],
          [-0.77202490, 48.07061020],
          [-0.77293330, 48.07058970],
          [-0.77324210, 48.07053670],
          [-0.77361420, 48.07047280],
          [-0.77570370, 48.06987810],
          [-0.77606040, 48.06973740],
          [-0.77666230, 48.07001080],
          [-0.77714400, 48.07026350],
          [-0.77786840, 48.07065150],
          [-0.77896020, 48.07127060],
          [-0.78007850, 48.07153440],
          [-0.78241660, 48.07122480],
          [-0.78288200, 48.07123610],
          [-0.78311450, 48.07125600],
          [-0.78531920, 48.07114490],
          [-0.78540030, 48.07157350],
          [-0.78768220, 48.07190480],
          [-0.78864720, 48.07208780],
          [-0.78931040, 48.07221570],
          [-0.78958770, 48.07221560],
          [-0.79021150, 48.07223470],
          [-0.79048680, 48.07224100],
          [-0.79111420, 48.07226670],
          [-0.79194040, 48.07231700],
          [-0.79304190, 48.07240630]
        ]
      },
      "properties": {
        "from_index": 5,
        "to_index": 0,
        "label": "5 -> 0",
        "distance": 5433.9644
      }
    },
    {"type":"__PLACEHOLDER__"}
  ]
}
